[{"OBJECT_NAME":"STARLINK-31557","OBJECT_ID":"2024-060K","EPOCH":"2026-03-09T12:26:48.613344","MEAN_MOTION":15.27572095,"ECCENTRICITY":0.00014026,"INCLINATION":43.0036,"RA_OF_ASC_NODE":256.7313,"ARG_OF_PERICENTER":260.4906,"MEAN_ANOMALY":99.5788,"EPHEMERIS_TYPE":0,"CLASSIFICATION_TYPE":"U","NORAD_CAT_ID":59357,"ELEMENT_SET_NO":999,"REV_AT_EPOCH":11008,"BSTAR":1.1490748e-5,"MEAN_MOTION_DOT":5.4e-7,"MEAN_MOTION_DDOT":0},{"OBJECT_NAME":"RE","OBJECT_ID":"2012-048H","EPOCH":"2026-03-09T14:34:58.971936","MEAN_MOTION":15.18958187,"ECCENTRICITY":0.0110372,"INCLINATION":64.6561,"RA_OF_ASC_NODE":148.4253,"ARG_OF_PERICENTER":206.6471,"MEAN_ANOMALY":152.8958,"EPHEMERIS_TYPE":0,"CLASSIFICATION_TYPE":"U","NORAD_CAT_ID":38765,"ELEMENT_SET_NO":999,"REV_AT_EPOCH":10026,"BSTAR":0.00059519,"MEAN_MOTION_DOT":0.00014497,"MEAN_MOTION_DDOT":0}]
